{
  "norad_id": 67906,
  "name": "STARLINK-36763",
  "history": [
    {
      "epoch": "2026-03-28T22:00:01.999584Z",
      "apogee_km": 481.6297719306531,
      "perigee_km": 479.485606796864,
      "latitude_deg": 2.204902270854425,
      "longitude_deg": 158.3451053631344,
      "height_km": 480.12464719099046,
      "semi_major_axis_km": 6858.694689363759,
      "eccentricity": 0.00015631,
      "inclination_deg": 43.0003,
      "raan_deg": 137.0369,
      "arg_perigee_deg": 269.4239,
      "mean_anomaly_deg": 267.2943,
      "mean_motion_rev_day": 15.28412411
    },
    {
      "epoch": "2026-03-29T04:00:01.999584Z",
      "apogee_km": 481.3803686682131,
      "perigee_km": 479.8261781222627,
      "latitude_deg": 38.71761864387336,
      "longitude_deg": 10.28811762251664,
      "height_km": 483.4887689813972,
      "semi_major_axis_km": 6858.740273395238,
      "eccentricity": 0.0001133,
      "inclination_deg": 43.0,
      "raan_deg": 135.6241,
      "arg_perigee_deg": 266.175,
      "mean_anomaly_deg": 207.7364,
      "mean_motion_rev_day": 15.28397174
    },
    {
      "epoch": "2026-03-30T03:01:50.821824Z",
      "apogee_km": 480.8407747137808,
      "perigee_km": 480.15353957123534,
      "latitude_deg": 4.514495725511905e-05,
      "longitude_deg": -102.78680458419416,
      "height_km": 480.1478804261457,
      "semi_major_axis_km": 6858.634157142508,
      "eccentricity": 5.01e-05,
      "inclination_deg": 42.9969,
      "raan_deg": 130.1974,
      "arg_perigee_deg": 291.2837,
      "mean_anomaly_deg": 68.7962,
      "mean_motion_rev_day": 15.28432645
    },
    {
      "epoch": "2026-03-30T03:01:50.822688Z",
      "apogee_km": 480.84063754109866,
      "perigee_km": 480.1536767439193,
      "latitude_deg": 4.367915028863737e-05,
      "longitude_deg": -102.78680975741744,
      "height_km": 480.147930210718,
      "semi_major_axis_km": 6858.634157142508,
      "eccentricity": 5.008e-05,
      "inclination_deg": 42.9969,
      "raan_deg": 130.1974,
      "arg_perigee_deg": 291.2837,
      "mean_anomaly_deg": 68.7962,
      "mean_motion_rev_day": 15.28432645
    },
    {
      "epoch": "2026-03-30T09:18:15.799104Z",
      "apogee_km": 480.6380239271184,
      "perigee_km": 480.3225275324339,
      "latitude_deg": -3.7288849670219734e-05,
      "longitude_deg": 161.37338800455063,
      "height_km": 480.24868454151095,
      "semi_major_axis_km": 6858.617275729775,
      "eccentricity": 2.3e-05,
      "inclination_deg": 42.9976,
      "raan_deg": 128.7194,
      "arg_perigee_deg": 272.5009,
      "mean_anomaly_deg": 87.5816,
      "mean_motion_rev_day": 15.28438288
    },
    {
      "epoch": "2026-03-31T10:23:57.137280Z",
      "apogee_km": 481.2158616171637,
      "perigee_km": 479.76046135789693,
      "latitude_deg": 3.2678106650964266e-05,
      "longitude_deg": 138.00781405997725,
      "height_km": 480.22398685404295,
      "semi_major_axis_km": 6858.62516148753,
      "eccentricity": 0.0001061,
      "inclination_deg": 43.0007,
      "raan_deg": 122.8066,
      "arg_perigee_deg": 273.1969,
      "mean_anomaly_deg": 86.8762,
      "mean_motion_rev_day": 15.28435652
    },
    {
      "epoch": "2026-04-01T13:03:43.912800Z",
      "apogee_km": 481.60504004869745,
      "perigee_km": 479.33346965708915,
      "latitude_deg": -1.6745730030954863e-05,
      "longitude_deg": 90.68625459863347,
      "height_km": 480.12308933334975,
      "semi_major_axis_km": 6858.606254852893,
      "eccentricity": 0.0001656,
      "inclination_deg": 43.0,
      "raan_deg": 116.525,
      "arg_perigee_deg": 276.2171,
      "mean_anomaly_deg": 83.8492,
      "mean_motion_rev_day": 15.28441972
    },
    {
      "epoch": "2026-04-02T20:00:01.999008Z",
      "apogee_km": 484.7022107663861,
      "perigee_km": 481.61462782770286,
      "latitude_deg": -42.33980177223428,
      "longitude_deg": -125.59789292611737,
      "height_km": 494.62629928175903,
      "semi_major_axis_km": 6861.295419297045,
      "eccentricity": 0.000225,
      "inclination_deg": 42.9997,
      "raan_deg": 109.2349,
      "arg_perigee_deg": 258.4479,
      "mean_anomaly_deg": 1.4624,
      "mean_motion_rev_day": 15.27543491
    },
    {
      "epoch": "2026-04-02T22:00:01.999584Z",
      "apogee_km": 484.2318771888331,
      "perigee_km": 482.1634592397522,
      "latitude_deg": -0.9320528868017832,
      "longitude_deg": -53.49384092888079,
      "height_km": 483.2192231350955,
      "semi_major_axis_km": 6861.334668214292,
      "eccentricity": 0.00015073,
      "inclination_deg": 42.9999,
      "raan_deg": 108.7671,
      "arg_perigee_deg": 262.0261,
      "mean_anomaly_deg": 96.6833,
      "mean_motion_rev_day": 15.27530384
    },
    {
      "epoch": "2026-04-03T20:00:01.999008Z",
      "apogee_km": 484.0979532563315,
      "perigee_km": 482.13289056269787,
      "latitude_deg": 3.779510698998883,
      "longitude_deg": -24.54074521481812,
      "height_km": 482.642886908195,
      "semi_major_axis_km": 6861.252421909515,
      "eccentricity": 0.0001432,
      "inclination_deg": 43.0004,
      "raan_deg": 103.5898,
      "arg_perigee_deg": 266.0158,
      "mean_anomaly_deg": 99.5662,
      "mean_motion_rev_day": 15.2755785
    },
    {
      "epoch": "2026-04-04T20:00:01.999008Z",
      "apogee_km": 484.1829515189438,
      "perigee_km": 482.0216611374508,
      "latitude_deg": 39.593227200751784,
      "longitude_deg": 82.90138883006011,
      "height_km": 486.43585111843964,
      "semi_major_axis_km": 6861.239306328197,
      "eccentricity": 0.0001575,
      "inclination_deg": 43.0006,
      "raan_deg": 97.9431,
      "arg_perigee_deg": 263.1225,
      "mean_anomaly_deg": 208.2059,
      "mean_motion_rev_day": 15.2756223
    },
    {
      "epoch": "2026-04-05T14:00:03.000384Z",
      "apogee_km": 484.0798365837745,
      "perigee_km": 481.9630319836306,
      "latitude_deg": -42.24263953679157,
      "longitude_deg": -25.752776288719595,
      "height_km": 494.96168710371825,
      "semi_major_axis_km": 6861.158434283702,
      "eccentricity": 0.00015426,
      "inclination_deg": 43.001,
      "raan_deg": 93.7078,
      "arg_perigee_deg": 267.5876,
      "mean_anomaly_deg": 13.0929,
      "mean_motion_rev_day": 15.27589238
    },
    {
      "epoch": "2026-04-05T20:00:03.000384Z",
      "apogee_km": 484.0793090231173,
      "perigee_km": 482.0662300767308,
      "latitude_deg": -24.471149628295443,
      "longitude_deg": 167.1841308888497,
      "height_km": 488.2837346110325,
      "semi_major_axis_km": 6861.209769549924,
      "eccentricity": 0.0001467,
      "inclination_deg": 43.0011,
      "raan_deg": 92.2951,
      "arg_perigee_deg": 259.1436,
      "mean_anomaly_deg": 317.9871,
      "mean_motion_rev_day": 15.27572094
    },
    {
      "epoch": "2026-04-06T00:00:02.000160Z",
      "apogee_km": 484.0424793856919,
      "perigee_km": 482.0510894041099,
      "latitude_deg": 33.95070468001932,
      "longitude_deg": -57.06424450128529,
      "height_km": 485.194876124172,
      "semi_major_axis_km": 6861.183784394901,
      "eccentricity": 0.00014512,
      "inclination_deg": 43.001,
      "raan_deg": 91.3548,
      "arg_perigee_deg": 261.6162,
      "mean_anomaly_deg": 153.0754,
      "mean_motion_rev_day": 15.27580772
    },
    {
      "epoch": "2026-04-08T06:41:13.041888Z",
      "apogee_km": 484.39859038739087,
      "perigee_km": 481.597051817238,
      "latitude_deg": 1.8619941980368134e-05,
      "longitude_deg": 141.63722032790446,
      "height_km": 483.2172129770721,
      "semi_major_axis_km": 6861.134821102314,
      "eccentricity": 0.00020416,
      "inclination_deg": 43.0024,
      "raan_deg": 78.485,
      "arg_perigee_deg": 251.6038,
      "mean_anomaly_deg": 108.4592,
      "mean_motion_rev_day": 15.27597124
    },
    {
      "epoch": "2026-04-09T09:21:52.682112Z",
      "apogee_km": 484.3283006485126,
      "perigee_km": 481.6527353615911,
      "latitude_deg": -3.955935968913331e-05,
      "longitude_deg": 94.10117402678299,
      "height_km": 483.22220427950697,
      "semi_major_axis_km": 6861.127518005052,
      "eccentricity": 0.00019498,
      "inclination_deg": 43.0018,
      "raan_deg": 72.2098,
      "arg_perigee_deg": 250.1389,
      "mean_anomaly_deg": 109.9252,
      "mean_motion_rev_day": 15.27599563
    },
    {
      "epoch": "2026-04-10T08:54:13.491072Z",
      "apogee_km": 484.0145956126753,
      "perigee_km": 481.9452827438199,
      "latitude_deg": -5.789380961000981e-06,
      "longitude_deg": 94.50938633496868,
      "height_km": 482.81017649483255,
      "semi_major_axis_km": 6861.116939178248,
      "eccentricity": 0.0001508,
      "inclination_deg": 43.0029,
      "raan_deg": 66.6714,
      "arg_perigee_deg": 267.0563,
      "mean_anomaly_deg": 93.0116,
      "mean_motion_rev_day": 15.27603096
    },
    {
      "epoch": "2026-04-11T20:59:49.739136Z",
      "apogee_km": 483.6287497124722,
      "perigee_km": 482.38688250075757,
      "latitude_deg": 2.3955381095245717e-05,
      "longitude_deg": -96.86362176571687,
      "height_km": 482.24601614866276,
      "semi_major_axis_km": 6861.144816106615,
      "eccentricity": 9.05e-05,
      "inclination_deg": 43.0004,
      "raan_deg": 58.1817,
      "arg_perigee_deg": 330.0051,
      "mean_anomaly_deg": 30.0749,
      "mean_motion_rev_day": 15.27593786
    },
    {
      "epoch": "2026-04-13T05:57:06.999552Z",
      "apogee_km": 484.0305008705491,
      "perigee_km": 482.03637029515176,
      "latitude_deg": 1.9727120250594895e-05,
      "longitude_deg": 119.70394944271627,
      "height_km": 482.6345956283083,
      "semi_major_axis_km": 6861.170435582851,
      "eccentricity": 0.00014532,
      "inclination_deg": 43.0037,
      "raan_deg": 50.4246,
      "arg_perigee_deg": 280.1671,
      "mean_anomaly_deg": 79.9017,
      "mean_motion_rev_day": 15.2758523
    }
  ]
}